STARLINK-1802           
1 46702U 20073AJ  26068.64319803  .00001996  00000+0  79571-4 0  9994
2 46702  53.1596 217.2753 0001195  90.3398 269.7740 15.30173346297472
ION SCV-008             
1 55051U 23001AU  26068.82429008  .00008336  00000+0  31423-3 0  9992
2 55051  97.5676 163.6060 0015192   8.5420 351.6074 15.27226640176169
